STARLINK-31386          
1 59298U 24056C   26068.48723892  .00000032  00000+0  10709-4 0  9990
2 59298  43.0015 231.8274 0001452 278.0938  81.9748 15.27572805111129
FLOCK 4G-26             
1 62633U 25009AA  26068.80489479  .00011283  00000+0  42469-3 0  9999
2 62633  97.4054 151.3913 0001988 299.1273  60.9767 15.27281631 63733
